start=new Date('2021-11-04T00:00:00.000Z').valueOf();
sats=[{"DECAY_DATE":null,"OBJECT_NAME":"STARLINK-1688","OBJECT_ID":"2020-062AY","CLASSIFICATION_TYPE":"U","FILE":"3199758","MEAN_MOTION":"15.06405321","COUNTRY_CODE":"US","MEAN_ELEMENT_THEORY":"SGP4","CENTER_NAME":"EARTH","ARG_OF_PERICENTER":"59.2332","BSTAR":"-0.00000418500000","NORAD_CAT_ID":"46371","TIME_SYSTEM":"UTC","TLE_LINE2":"2 46371  53.0532 282.2068 0001744  59.2332 300.8828 15.06405321 65354","RCS_SIZE":"LARGE","GP_ID":"188827008","SITE":"AFETR","EPHEMERIS_TYPE":"0","PERIOD":"95.592","APOAPSIS":"548.405","TLE_LINE1":"1 46371U 20062AY  21307.40954424 -.00000344  00000-0 -41850-5 0  9992","RA_OF_ASC_NODE":"282.2068","ECCENTRICITY":"0.00017440","LAUNCH_DATE":"2020-09-03","MEAN_ANOMALY":"300.8828","PERIAPSIS":"545.989","MEAN_MOTION_DDOT":"0.0000000000000","INCLINATION":"53.0532","SEMIMAJOR_AXIS":"6925.332","OBJECT_TYPE":"PAYLOAD","EPOCH":"2021-11-03T09:49:44.622336","ELEMENT_SET_NO":"999","REV_AT_EPOCH":"6535","REF_FRAME":"TEME","MEAN_MOTION_DOT":"-0.00000344"},{"TIME_SYSTEM":"UTC","SITE":"AFETR","GP_ID":"188858511","RCS_SIZE":"LARGE","TLE_LINE2":"2 46372  53.0543 300.9639 0001668  70.6692 289.4477 15.06401599 65119","EPHEMERIS_TYPE":"0","PERIOD":"95.592","TLE_LINE1":"1 46372U 20062AZ  21307.68415094 -.00000444  00000-0 -10886-4 0  9993","APOAPSIS":"548.364","RA_OF_ASC_NODE":"300.9639","DECAY_DATE":null,"OBJECT_NAME":"STARLINK-1689","OBJECT_ID":"2020-062AZ","CLASSIFICATION_TYPE":"U","FILE":"3200165","MEAN_MOTION":"15.06401599","MEAN_ELEMENT_THEORY":"SGP4","COUNTRY_CODE":"US","CENTER_NAME":"EARTH","NORAD_CAT_ID":"46372","BSTAR":"-0.00001088600000","ARG_OF_PERICENTER":"70.6692","OBJECT_TYPE":"PAYLOAD","SEMIMAJOR_AXIS":"6925.344","INCLINATION":"53.0543","EPOCH":"2021-11-03T16:25:10.641216","ELEMENT_SET_NO":"999","REV_AT_EPOCH":"6511","MEAN_MOTION_DOT":"-0.00000444","REF_FRAME":"TEME","ECCENTRICITY":"0.00016680","LAUNCH_DATE":"2020-09-03","MEAN_ANOMALY":"289.4477","PERIAPSIS":"546.054","MEAN_MOTION_DDOT":"0.0000000000000"},{"ECCENTRICITY":"0.00059170","MEAN_ANOMALY":"330.4066","LAUNCH_DATE":"2020-09-03","MEAN_MOTION_DDOT":"0.0000000000000","PERIAPSIS":"543.144","INCLINATION":"53.0553","OBJECT_TYPE":"PAYLOAD","SEMIMAJOR_AXIS":"6925.377","ELEMENT_SET_NO":"999","EPOCH":"2021-11-03T11:58:28.917120","REV_AT_EPOCH":"6606","MEAN_MOTION_DOT":"-0.00000895","REF_FRAME":"TEME","CLASSIFICATION_TYPE":"U","OBJECT_ID":"2020-062BB","DECAY_DATE":null,"OBJECT_NAME":"STARLINK-1711","MEAN_MOTION":"15.06390755","FILE":"3199758","MEAN_ELEMENT_THEORY":"SGP4","COUNTRY_CODE":"US","CENTER_NAME":"EARTH","ARG_OF_PERICENTER":"29.7259","BSTAR":"-0.00004102700000","NORAD_CAT_ID":"46374","TIME_SYSTEM":"UTC","PERIOD":"95.593","EPHEMERIS_TYPE":"0","RCS_SIZE":"LARGE","TLE_LINE2":"2 46374  53.0553 231.8005 0005917  29.7259 330.4066 15.06390755 66063","SITE":"AFETR","GP_ID":"188828009","RA_OF_ASC_NODE":"231.8005","TLE_LINE1":"1 46374U 20062BB  21307.49894580 -.00000895  00000-0 -41027-4 0  9996","APOAPSIS":"551.340"},{"PERIAPSIS":"546.142","MEAN_MOTION_DDOT":"0.0000000000000","LAUNCH_DATE":"2020-09-03","MEAN_ANOMALY":"290.6086","ECCENTRICITY":"0.00015600","MEAN_MOTION_DOT":"0.00000210","REF_FRAME":"TEME","REV_AT_EPOCH":"6572","EPOCH":"2021-11-03T13:54:34.334784","ELEMENT_SET_NO":"999","INCLINATION":"53.0540","OBJECT_TYPE":"PAYLOAD","SEMIMAJOR_AXIS":"6925.357","BSTAR":"0.00003298600000","ARG_OF_PERICENTER":"69.5070","NORAD_CAT_ID":"46375","COUNTRY_CODE":"US","MEAN_ELEMENT_THEORY":"SGP4","CENTER_NAME":"EARTH","FILE":"3200165","MEAN_MOTION":"15.06397244","OBJECT_NAME":"STARLINK-1724","DECAY_DATE":null,"CLASSIFICATION_TYPE":"U","OBJECT_ID":"2020-062BC","TLE_LINE1":"1 46375U 20062BC  21307.57956406  .00000210  00000-0  32986-4 0  9995","APOAPSIS":"548.302","RA_OF_ASC_NODE":"256.4342","TLE_LINE2":"2 46375  53.0540 256.4342 0001560  69.5070 290.6086 15.06397244 65721","RCS_SIZE":"LARGE","GP_ID":"188859012","SITE":"AFETR","EPHEMERIS_TYPE":"0","PERIOD":"95.592","TIME_SYSTEM":"UTC"},{"FILE":"3200165","MEAN_MOTION":"15.06402179","OBJECT_NAME":"STARLINK-1742","DECAY_DATE":null,"CLASSIFICATION_TYPE":"U","OBJECT_ID":"2020-062BD","NORAD_CAT_ID":"46376","BSTAR":"0.00001555400000","ARG_OF_PERICENTER":"73.6183","COUNTRY_CODE":"US","MEAN_ELEMENT_THEORY":"SGP4","CENTER_NAME":"EARTH","TIME_SYSTEM":"UTC","TLE_LINE1":"1 46376U 20062BD  21307.59430787 -.00000050  00000-0  15554-4 0  9992","APOAPSIS":"548.273","RA_OF_ASC_NODE":"256.3735","SITE":"AFETR","GP_ID":"188859263","TLE_LINE2":"2 46376  53.0532 256.3735 0001539  73.6183 286.4975 15.06402179 65729","RCS_SIZE":"LARGE","PERIOD":"95.592","EPHEMERIS_TYPE":"0","LAUNCH_DATE":"2020-09-03","MEAN_ANOMALY":"286.4975","ECCENTRICITY":"0.00015390","PERIAPSIS":"546.141","MEAN_MOTION_DDOT":"0.0000000000000","EPOCH":"2021-11-03T14:15:48.199968","ELEMENT_SET_NO":"999","OBJECT_TYPE":"PAYLOAD","SEMIMAJOR_AXIS":"6925.342","INCLINATION":"53.0532","REF_FRAME":"TEME","MEAN_MOTION_DOT":"-0.00000050","REV_AT_EPOCH":"6572"},{"INCLINATION":"53.0535","OBJECT_TYPE":"PAYLOAD","SEMIMAJOR_AXIS":"6925.353","ELEMENT_SET_NO":"999","EPOCH":"2021-11-03T06:34:01.565472","REV_AT_EPOCH":"6567","REF_FRAME":"TEME","MEAN_MOTION_DOT":"0.00000256","ECCENTRICITY":"0.00014940","MEAN_ANOMALY":"291.2411","LAUNCH_DATE":"2020-09-03","MEAN_MOTION_DDOT":"0.0000000000000","PERIAPSIS":"546.183","TIME_SYSTEM":"UTC","PERIOD":"95.592","EPHEMERIS_TYPE":"0","TLE_LINE2":"2 46378  53.0535 257.8142 0001494  68.8738 291.2411 15.06398661 65677","RCS_SIZE":"LARGE","SITE":"AFETR","GP_ID":"188827757","RA_OF_ASC_NODE":"257.8142","APOAPSIS":"548.252","TLE_LINE1":"1 46378U 20062BF  21307.27362923  .00000256  00000-0  36091-4 0  9991","OBJECT_ID":"2020-062BF","CLASSIFICATION_TYPE":"U","OBJECT_NAME":"STARLINK-1751","DECAY_DATE":null,"FILE":"3199758","MEAN_MOTION":"15.06398661","CENTER_NAME":"EARTH","COUNTRY_CODE":"US","MEAN_ELEMENT_THEORY":"SGP4","BSTAR":"0.00003609100000","ARG_OF_PERICENTER":"68.8738","NORAD_CAT_ID":"46378"},{"EPOCH":"2021-11-03T15:02:55.257216","ELEMENT_SET_NO":"999","SEMIMAJOR_AXIS":"6925.391","OBJECT_TYPE":"PAYLOAD","INCLINATION":"53.0520","MEAN_MOTION_DOT":"-0.00000656","REF_FRAME":"TEME","REV_AT_EPOCH":"6538","LAUNCH_DATE":"2020-09-03","MEAN_ANOMALY":"291.0807","ECCENTRICITY":"0.00015230","PERIAPSIS":"546.201","MEAN_MOTION_DDOT":"0.0000000000000","TIME_SYSTEM":"UTC","TLE_LINE1":"1 46380U 20062BH  21307.62702844 -.00000656  00000-0 -25153-4 0  9996","APOAPSIS":"548.311","RA_OF_ASC_NODE":"281.2150","SITE":"AFETR","GP_ID":"188858261","RCS_SIZE":"LARGE","TLE_LINE2":"2 46380  53.0520 281.2150 0001523  69.0345 291.0807 15.06386211 65387","PERIOD":"95.593","EPHEMERIS_TYPE":"0","FILE":"3200165","MEAN_MOTION":"15.06386211","DECAY_DATE":null,"OBJECT_NAME":"STARLINK-1758","CLASSIFICATION_TYPE":"U","OBJECT_ID":"2020-062BH","NORAD_CAT_ID":"46380","BSTAR":"-0.00002515300000","ARG_OF_PERICENTER":"69.0345","COUNTRY_CODE":"US","MEAN_ELEMENT_THEORY":"SGP4","CENTER_NAME":"EARTH"},{"RCS_SIZE":"LARGE","TLE_LINE2":"2 46382  53.0549 257.8014 0001482  71.6862 288.4288 15.06387176 65682","GP_ID":"188827486","SITE":"AFETR","EPHEMERIS_TYPE":"0","PERIOD":"95.593","APOAPSIS":"548.279","TLE_LINE1":"1 46382U 20062BK  21307.27732590 -.00001835  00000-0 -10433-3 0  9994","RA_OF_ASC_NODE":"257.8014","TIME_SYSTEM":"UTC","MEAN_ELEMENT_THEORY":"SGP4","COUNTRY_CODE":"US","CENTER_NAME":"EARTH","ARG_OF_PERICENTER":"71.6862","BSTAR":"-0.00010433000000","NORAD_CAT_ID":"46382","OBJECT_NAME":"STARLINK-1769","DECAY_DATE":null,"CLASSIFICATION_TYPE":"U","OBJECT_ID":"2020-062BK","MEAN_MOTION":"15.06387176","FILE":"3199758","REV_AT_EPOCH":"6568","MEAN_MOTION_DOT":"-0.00001835","REF_FRAME":"TEME","INCLINATION":"53.0549","OBJECT_TYPE":"PAYLOAD","SEMIMAJOR_AXIS":"6925.388","EPOCH":"2021-11-03T06:39:20.957760","ELEMENT_SET_NO":"999","PERIAPSIS":"546.227","MEAN_MOTION_DDOT":"0.0000000000000","ECCENTRICITY":"0.00014820","LAUNCH_DATE":"2020-09-03","MEAN_ANOMALY":"288.4288"},{"COUNTRY_CODE":"US","CENTER_NAME":"EARTH","MEAN_ELEMENT_THEORY":"SGP4","NORAD_CAT_ID":"46383","BSTAR":"-0.00000518870000","ARG_OF_PERICENTER":"65.3120","DECAY_DATE":null,"OBJECT_NAME":"STARLINK-1770","OBJECT_ID":"2020-062BL","CLASSIFICATION_TYPE":"U","MEAN_MOTION":"15.06402345","FILE":"3199758","GP_ID":"188827009","SITE":"AFETR","TLE_LINE2":"2 46383  53.0548 302.2580 0001452  65.3120 294.8020 15.06402345 65062","RCS_SIZE":"LARGE","EPHEMERIS_TYPE":"0","PERIOD":"95.592","TLE_LINE1":"1 46383U 20062BL  21307.39665147 -.00000359  00000-0 -51887-5 0  9991","APOAPSIS":"548.212","RA_OF_ASC_NODE":"302.2580","TIME_SYSTEM":"UTC","PERIAPSIS":"546.201","MEAN_MOTION_DDOT":"0.0000000000000","ECCENTRICITY":"0.00014520","LAUNCH_DATE":"2020-09-03","MEAN_ANOMALY":"294.8020","REV_AT_EPOCH":"6506","MEAN_MOTION_DOT":"-0.00000359","REF_FRAME":"TEME","SEMIMAJOR_AXIS":"6925.341","OBJECT_TYPE":"PAYLOAD","INCLINATION":"53.0548","EPOCH":"2021-11-03T09:31:10.687008","ELEMENT_SET_NO":"999"},{"NORAD_CAT_ID":"46384","ARG_OF_PERICENTER":"69.9177","BSTAR":"-0.00005305200000","COUNTRY_CODE":"US","MEAN_ELEMENT_THEORY":"SGP4","CENTER_NAME":"EARTH","MEAN_MOTION":"15.06391420","FILE":"3200165","OBJECT_ID":"2020-062BM","CLASSIFICATION_TYPE":"U","OBJECT_NAME":"STARLINK-1771","DECAY_DATE":null,"RA_OF_ASC_NODE":"301.3329","APOAPSIS":"548.374","TLE_LINE1":"1 46384U 20062BM  21307.59938319 -.00001071  00000-0 -53052-4 0  9995","EPHEMERIS_TYPE":"0","PERIOD":"95.593","SITE":"AFETR","GP_ID":"188858512","TLE_LINE2":"2 46384  53.0543 301.3329 0001637  69.9177 290.1988 15.06391420 65092","RCS_SIZE":"LARGE","TIME_SYSTEM":"UTC","MEAN_MOTION_DDOT":"0.0000000000000","PERIAPSIS":"546.106","MEAN_ANOMALY":"290.1988","LAUNCH_DATE":"2020-09-03","ECCENTRICITY":"0.00016370","REF_FRAME":"TEME","MEAN_MOTION_DOT":"-0.00001071","REV_AT_EPOCH":"6509","ELEMENT_SET_NO":"999","EPOCH":"2021-11-03T14:23:06.707616","OBJECT_TYPE":"PAYLOAD","SEMIMAJOR_AXIS":"6925.375","INCLINATION":"53.0543"}];
